388P/Gibbs,e,23.8868,37.0259,42.3339,5.240592,0.0821549,0.61934011,154.2017,09/14.0/2024,2000,g 13.0,4.0
# From MPEC 2022-OB6
389P/Siding Spring,e,160.0843,218.8743,249.3671,5.631880,0.0737435,0.70529582,126.7662,09/14.0/2024,2000,g 16.0,4.0
# From MPEC 2024-EF7
390P/Gibbs,e,18.5330,152.2278,232.5095,5.815917,0.0702711,0.70705843,114.9779,09/14.0/2024,2000,g 12.0,4.0
# From MPEC 2021-F20
391P/Kowalski,e,21.2591,124.7833,187.1203,4.689392,0.0970575,0.11862316,230.2852,09/14.0/2024,2000,g  8.0,4.0
# From MPEC 2021-J28
392P/LINEAR,e,4.9306,24.8356,71.9137,6.141234,0.0647620,0.68385214,105.2803,09/14.0/2024,2000,g 14.5,4.0
# From MPEC 2023-T65
393P/Spacewatch-Hill,e,16.7864,36.3956,329.2049,4.798266,0.0937729,0.11960699,166.8566,09/14.0/2024,2000,g 11.0,4.0
# From MPEC 2020-KB7
394P/PANSTARRS,e,8.5290,98.1194,54.4085,4.327878,0.1094691,0.36797947,191.5826,09/14.0/2024,2000,g 16.0,2.4
# From MPEC 2024-PC5
395P/Catalina-NEAT,e,3.5781,221.0214,100.3105,7.196334,0.0510549,0.41347220,47.7928,09/14.0/2024,2000,g 10.0,4.0
# From MPEC 2020-KB7
396P/,e,5.4406,136.6177,8.3048,6.799673,0.0555868,0.41661350,102.4915,09/14.0/2024,2000,g 12.0,4.0
# From MPEC 2022-OB6
397P/Lemmon,e,10.9235,8.2213,14.5725,3.831594,0.1314119,0.40489143,203.2671,09/14.0/2024,2000,g 12.0,4.0
# From MPEC 2021-L04
398P/Boattini,e,11.0244,320.1418,127.5206,3.125196,0.1783972,0.58367501,241.9172,09/14.0/2024,2000,g 15.5,4.0
# From MPEC 2023-XP6
399P/PANSTARRS,e,13.3198,207.1273,214.4144,3.793239,0.1334101,0.44742109,161.3709,09/14.0/2024,2000,g 14.0,4.0
# From MPEC 2022-ED3
400P/PANSTARRS,e,10.9284,176.3939,238.8846,3.561964,0.1466121,0.40970224,192.1822,09/14.0/2024,2000,g 15.5,2.8
# From MPEC 2022-K19
401P/McNaught,e,12.8009,359.9163,309.4008,5.777648,0.0709704,0.57856666,123.8644,09/14.0/2024,2000,g 12.5,4.0
# From MPEC 2024-LE0
402P/LINEAR,e,30.8308,123.0605,326.9019,7.036204,0.0528076,0.44001191,52.9847,09/14.0/2024,2000,g  9.0,4.0
# From MPEC 2021-J28
403P/Catalina,e,12.3300,277.5694,163.9236,5.431186,0.0778685,0.50430551,113.4916,09/14.0/2024,2000,g 12.0,4.0
# From MPEC 2024-MB8
404P/Bressi,e,9.8040,260.0411,169.2447,4.723444,0.0960099,0.12508495,30.3369,09/14.0/2024,2000,g 10.0,4.0
# From MPEC 2021-L04
405P/Lemmon,e,9.3770,112.1909,3.2977,3.604479,0.1440258,0.68999280,195.7242,09/14.0/2024,2000,g 17.5,4.0
# From MPEC 2021-F20
406P/Gibbs,e,1.2105,352.4065,11.5524,3.578706,0.1455845,0.54136714,212.4414,09/14.0/2024,2000,g 17.0,4.0
# From MPEC 2022-YN2
407P/PANSTARRS-Fuls,e,4.8765,80.2400,93.3705,3.487808,0.1513126,0.37647797,257.1300,09/14.0/2024,2000,g 14.0,4.0
# From MPEC 2024-N80
408P/Novichonok-Gerke,e,19.3553,189.4468,226.6212,4.744215,0.0953800,0.26862337,67.6362,09/14.0/2024,2000,g 11.0,4.0
# From MPEC 2022-ED3
409P/LONEOS-Hill,e,17.1392,143.6445,15.0490,6.033483,0.0665046,0.70997485,88.1029,09/14.0/2024,2000,g 14.0,4.0
# From MPEC 2022-M21
410P/NEAT-LINEAR,e,9.3885,139.9567,313.1952,6.649964,0.0574745,0.51171019,67.6802,09/14.0/2024,2000,g 12.5,4.0
# From MPEC 2021-J28
411P/Christensen,e,12.3897,77.6537,46.5512,5.811305,0.0703548,0.58155144,93.4262,09/14.0/2024,2000,g 13.5,4.0
# From MPEC 2021-F20
412P/WISE,e,8.9307,0.8456,155.8851,3.110735,0.1796427,0.47897854,247.9446,09/14.0/2024,2000,g 17.0,4.0
# From MPEC 2022-OB6
413P/Larson,e,15.9687,39.2340,186.5377,3.734027,0.1365960,0.41872801,157.7163,09/14.0/2024,2000,g 14.0,4.0
# From MPEC 2024-JU4
414P/STEREO,e,23.4076,257.8181,210.6946,2.792605,0.2111980,0.81219094,280.3054,09/14.0/2024,2000,g 19.0,4.0
# From MPEC 2022-J42
415P/Tenagra,e,31.8013,160.2641,345.8695,4.109171,0.1183240,0.19523849,154.8118,09/14.0/2024,2000,g 12.0,4.0
# From MPEC 2021-L04
416P/Scotti,e,3.3623,355.7526,134.4193,4.007288,0.1228650,0.45516686,160.4599,09/14.0/2024,2000,g 15.5,4.0
# From MPEC 2021-W31
417P/NEOWISE,e,8.9596,117.2946,122.0327,3.306761,0.1639079,0.57236917,202.8815,09/14.0/2024,2000,g 16.5,4.0
# From MPEC 2022-TA0
418P/LINEAR,e,5.7804,277.6359,307.3617,5.092734,0.0857586,0.66369788,91.2000,09/14.0/2024,2000,g 13.0,4.0
# From MPEC 2023-UR6
419P/PANSTARRS,e,2.7993,40.4195,187.8989,3.529805,0.1486203,0.27517651,156.5558,09/14.0/2024,2000,g 12.5,4.0
# From MPEC 2024-L77
420P/Hill,e,14.4864,173.7162,156.4803,5.494798,0.0765203,0.49527872,64.9317,09/14.0/2024,2000,g 11.5,4.0
# From MPEC 2021-W31
421P/McNaught,e,10.0758,55.3318,259.8894,5.075949,0.0861843,0.67453954,114.4911,09/14.0/2024,2000,g 14.0,4.0
# From MPEC 2024-N80
422P/Christensen,e,39.5819,36.0202,304.8047,6.278678,0.0626472,0.50610618,61.1723,09/14.0/2024,2000,g 11.0,4.0
# From MPEC 2023-FK0
423P/Lemmon,e,8.3448,33.3002,80.6582,6.178406,0.0641785,0.12261822,69.7423,09/14.0/2024,2000,g  8.0,4.0
# From MPEC 2022-CN4
424P/LaSagra,e,8.6828,51.1964,312.5599,4.420043,0.1060631,0.69075413,111.2234,09/14.0/2024,2000,g 17.0,4.0
# From MPEC 2024-C04
425P/Kowalski,e,16.4190,210.0787,200.9400,6.348227,0.0616205,0.54397029,67.0998,09/14.0/2024,2000,g 12.0,4.0
# From MPEC 2024-N80
426P/PANSTARRS,e,17.7835,280.3955,118.4731,3.186601,0.1732656,0.16122597,63.9762,09/14.0/2024,2000,g 13.5,4.0
# From MPEC 2023-J29
428P/Gibbs,e,8.5045,299.3216,36.9062,3.487634,0.1513240,0.51850593,184.4860,09/14.0/2024,2000,g 15.0,4.0
# From MPEC 2024-EF7
429P/LINEAR-Hill,e,7.5155,322.0382,75.6928,3.554966,0.1470452,0.49117057,144.9395,09/14.0/2024,2000,g 15.5,4.0
# From MPEC 2022-L66
430P/Scotti,e,4.4752,54.6626,94.4265,3.103890,0.1802373,0.49998571,183.2402,09/14.0/2024,2000,g 16.5,4.0
# From MPEC 2024-EF7
431P/Scotti,e,22.3877,202.8431,199.9773,3.476262,0.1520671,0.47761538,143.4619,09/14.0/2024,2000,g 14.0,4.0
# From MPEC 2021-U31
432P/PANSTARRS,e,10.0683,239.1288,105.3174,3.037468,0.1861815,0.24112327,206.8967,09/14.0/2024,2000,g 17.0,4.0
# From MPEC 2024-D33
434P/Tenagra,e,6.3360,288.9261,128.3665,4.134453,0.1172403,0.27460809,123.4495,09/14.0/2024,2000,g 13.0,4.0
# From MPEC 2021-W31
435P/PANSTARRS,e,18.8744,98.5295,244.2413,3.020818,0.1877228,0.31782616,214.9742,09/14.0/2024,2000,g 17.0,4.0
# From MPEC 2022-X67
436P/Garradd,e,20.2000,87.1610,282.7346,5.935843,0.0681523,0.66942857,68.8838,09/14.0/2024,2000,g 14.5,4.0
# From MPEC 2023-B57
437P/Lemmon-PANSTARRS,e,3.6890,245.8406,206.9569,4.566791,0.1009921,0.25509152,76.3778,09/14.0/2024,2000,g 13.0,4.0
# From MPEC 2021-W47
438P/Christensen,e,8.2808,260.1114,59.0270,3.851373,0.1304009,0.41438719,211.8447,09/14.0/2024,2000,g 14.5,4.0
# From MPEC 2022-C56
439P/LINEAR,e,7.1134,56.4352,342.0937,3.491197,0.1510924,0.46938494,168.4015,09/14.0/2024,2000,g 13.5,4.0
# From MPEC 2024-N80
440P/Kobayashi,e,12.3449,328.8290,183.2873,8.577015,0.0392374,0.76063678,35.2713,09/14.0/2024,2000,g 15.5,4.0
# From MPEC 2022-X67
441P/PANSTARRS,e,2.5745,143.5973,178.8652,4.133311,0.1172889,0.19491018,317.7334,09/14.0/2024,2000,g 13.5,4.0
# From MPEC 2024-N80
442P/McNaught,e,6.0575,31.9895,310.7046,4.960198,0.0892186,0.53262192,67.6124,09/14.0/2024,2000,g 13.5,4.0
# From MPEC 2023-SQ0
443P/PANSTARRS-Christensen,e,19.8878,108.9390,145.1074,4.125231,0.1176337,0.28319645,82.9416,09/14.0/2024,2000,g 13.5,4.0
# From MPEC 2023-VM5
444P/WISE-PANSTARRS,e,22.5749,88.3642,172.4755,3.453027,0.1536046,0.56667239,122.5696,09/14.0/2024,2000,g 17.0,4.0
# From MPEC 2024-BE0
445P/Lemmon-PANSTARRS,e,1.0886,126.5907,213.3183,4.049092,0.1209672,0.41397519,91.8606,09/14.0/2024,2000,g 15.0,4.0
# From MPEC 2024-NE4
446P/McNaught,e,16.6178,336.3689,344.6592,4.563411,0.1011043,0.64670648,84.8094,09/14.0/2024,2000,g 16.5,4.0
# From MPEC 2022-YB4
447P/Sheppard-Tholen,e,7.4393,302.6361,97.6701,5.630043,0.0737796,0.17791586,55.9083,09/14.0/2024,2000,g 12.0,4.0
# From MPEC 2024-PC5
448P/PANSTARRS,e,12.1484,161.7578,218.7770,3.635438,0.1421900,0.41851001,105.0139,09/14.0/2024,2000,g 16.0,4.0
# From MPEC 2024-DC6
449P/Leonard,e,15.4718,242.5240,176.7420,3.600024,0.1442932,0.47985285,200.4418,09/14.0/2024,2000,g 16.0,4.0
# From MPEC 2024-RQ6
450P/LONEOS,e,10.5775,124.6505,21.8918,7.966185,0.0438358,0.31310547,322.3723,09/14.0/2024,2000,g  6.5,4.0
# From MPEC 2023-HD1
451P/Christensen,e,26.4809,300.8825,186.7474,6.346429,0.0616467,0.55904701,40.4567,09/14.0/2024,2000,g 15.5,4.0
# From MPEC 2024-NE4
452P/Sheppard-Jewitt,e,6.4215,123.6768,37.0584,7.305898,0.0499107,0.42815606,25.3221,09/14.0/2024,2000,g  9.0,4.0
# From MPEC 2023-RF3
453P/WISE-Lemmon,e,27.0662,42.8962,70.8657,5.464624,0.0771549,0.58300999,43.2686,09/14.0/2024,2000,g 14.0,4.0
# From MPEC 2023-CD7
454P/PANSTARRS,e,19.8124,54.5828,20.1332,4.209729,0.1141098,0.36158009,89.0616,09/14.0/2024,2000,g 14.0,4.0
# From MPEC 2022-Y14
455P/PANSTARRS,e,14.1370,146.1843,237.5150,3.152748,0.1760638,0.30472294,99.8028,09/14.0/2024,2000,g 17.0,4.0
# From MPEC 2023-N01
456P/PANSTARRS,e,16.9704,243.1578,233.1403,3.173577,0.1743334,0.11718647,322.7746,09/14.0/2024,2000,g 13.5,4.0
# From MPEC 2024-P23
457P/Lemmon-PANSTARRS,e,5.2252,175.9672,104.3873,2.645834,0.2290131,0.11856637,5.6498,09/14.0/2024,2000,g 15.5,4.0
# From MPEC 2023-HD1
458P/Jahn,e,13.6245,1.5795,104.8692,3.858379,0.1300459,0.31720833,89.0171,09/14.0/2024,2000,g 17.3,4.0
# From MPEC 2024-N80
459P/Catalina,e,7.1736,256.9881,205.2091,3.240076,0.1689940,0.57778860,96.4112,09/14.0/2024,2000,g 15.5,4.0
# From MPEC 2023-G14
460P/PANSTARRS,e,18.8971,180.5151,351.9425,3.027138,0.1871353,0.66406202,221.9259,09/14.0/2024,2000,g 21.0,4.0
# From MPEC 2024-GJ3
461P/WISE,e,18.4060,194.3798,174.8339,3.143748,0.1768205,0.56989105,190.1197,09/14.0/2024,2000,g 18.5,4.0
# From MPEC 2024-BE0
462P/LONEOS-PANSTARRS,e,7.0328,322.7338,4.3214,4.871481,0.0916669,0.57819710,70.9813,09/14.0/2024,2000,g 17.0,4.0
# From MPEC 2024-GJ3
463P/NEOWISE,e,29.2916,283.2139,216.3463,2.974302,0.1921439,0.82571315,102.6659,09/14.0/2024,2000,g 18.0,4.0
# From MPEC 2024-Q20
464P/PANSTARRS,e,21.6699,309.5774,267.6010,4.685524,0.0971778,0.28046256,54.8494,09/14.0/2024,2000,g 10.5,4.0
# From MPEC 2024-NE4
465P/Hill,e,25.8653,217.9921,141.0531,6.019508,0.0667364,0.61355197,32.9437,09/14.0/2024,2000,g 12.5,4.0
# From MPEC 2024-JU4
